ATLAS CENTAUR R/B       
1 06155U 72065B   26067.00431355  .00001791  00000+0  24694-3 0  9994
2 06155  35.0023 315.6312 0033736 354.6289   5.4047 14.77682406841011
SL-8 R/B                
1 08459U 75112B   26067.04233857  .00000356  00000+0  12553-3 0  9997
2 08459  74.0625  21.9418 0014479 115.8970 244.3679 14.38202627631632
SL-3 R/B                
1 10114U 77057B   26067.10030629  .00018813  00000+0  39439-3 0  9996
2 10114  97.5773 238.9509 0006155 291.9134  68.1459 15.45440113668088
SEASAT 1                
1 10967U 78064A   26067.11267176  .00000346  00000+0  13508-3 0  9992
2 10967 108.0112 122.1906 0002241 286.6170  73.4729 14.46158898506285
SL-14 R/B               
1 11267U 79011B   26067.10494741  .00000773  00000+0  73710-4 0  9994
2 11267  82.5210  98.0751 0017472  65.3970 294.9068 14.91906424528540
SL-8 R/B                
1 11574U 79089B   26067.15024049  .00000400  00000+0  12880-3 0  9992
2 11574  74.0669  93.8939 0017161 266.7429  93.1764 14.42349850435883
SL-14 R/B               
1 11672U 80005B   26067.11692776  .00000807  00000+0  79075-4 0  9996
2 11672  82.5147 308.7282 0016052 163.3381 196.8369 14.90928613476254
SL-8 R/B                
1 12139U 81003B   26067.08013403  .00027158  00000+0  69782-3 0  9995
2 12139  82.9386 291.5121 0262326 184.2241 175.6783 15.10898292314435
SL-3 R/B                
1 12465U 81046B   26067.09725929  .00018063  00000+0  42056-3 0  9998
2 12465  81.2296 291.6568 0019663  27.8344 332.3946 15.41946157438185
SL-3 R/B                
1 12904U 81103B   26067.12802450  .00008355  00000+0  37104-3 0  9990
2 12904  81.1589 215.2636 0012532 292.4071  67.5832 15.21355733972995
SL-3 R/B                
1 13068U 82013B   26067.13674932  .00007712  00000+0  33436-3 0  9996
2 13068  81.1763 162.5903 0022580 182.5394 177.5727 15.21999398404113
SL-3 R/B                
1 13154U 82039B   26067.13278839  .00004179  00000+0  25276-3 0  9993
2 13154  81.1585 217.7566 0029783 329.5832  30.3664 15.10071218381403
