CCSDS_OMM_VERS = 2.0
CREATION_DATE  = 
ORIGINATOR     = 

OBJECT_NAME    = ATLAS CENTAUR R/B
OBJECT_ID      = 1972-065B
CENTER_NAME    = EARTH
REF_FRAME      = TEME
TIME_SYSTEM    = UTC
MEAN_ELEMENT_THEORY = SGP/SGP4

EPOCH          = 2026-03-08T00:06:12.690720
MEAN_MOTION    = 14.77682406
ECCENTRICITY   = .0033736
INCLINATION    = 35.0023
RA_OF_ASC_NODE = 315.6312
ARG_OF_PERICENTER = 354.6289
MEAN_ANOMALY   = 5.4047

EPHEMERIS_TYPE = 0
CLASSIFICATION_TYPE = U
NORAD_CAT_ID   = 6155
ELEMENT_SET_NO = 999
REV_AT_EPOCH   = 84101
BSTAR          = .24694E-3
MEAN_MOTION_DOT = .1791E-4
MEAN_MOTION_DDOT = 0

CCSDS_OMM_VERS = 2.0
CREATION_DATE  = 
ORIGINATOR     = 

OBJECT_NAME    = SL-8 R/B
OBJECT_ID      = 1975-112B
CENTER_NAME    = EARTH
REF_FRAME      = TEME
TIME_SYSTEM    = UTC
MEAN_ELEMENT_THEORY = SGP/SGP4

EPOCH          = 2026-03-08T01:00:58.052448
MEAN_MOTION    = 14.38202627
ECCENTRICITY   = .0014479
INCLINATION    = 74.0625
RA_OF_ASC_NODE = 21.9418
ARG_OF_PERICENTER = 115.8970
MEAN_ANOMALY   = 244.3679

EPHEMERIS_TYPE = 0
CLASSIFICATION_TYPE = U
NORAD_CAT_ID   = 8459
ELEMENT_SET_NO = 999
REV_AT_EPOCH   = 63163
BSTAR          = .12553E-3
MEAN_MOTION_DOT = .356E-5
MEAN_MOTION_DDOT = 0

CCSDS_OMM_VERS = 2.0
CREATION_DATE  = 
ORIGINATOR     = 

OBJECT_NAME    = SL-3 R/B
OBJECT_ID      = 1977-057B
CENTER_NAME    = EARTH
REF_FRAME      = TEME
TIME_SYSTEM    = UTC
MEAN_ELEMENT_THEORY = SGP/SGP4

EPOCH          = 2026-03-08T02:24:26.463456
MEAN_MOTION    = 15.45440113
ECCENTRICITY   = .0006155
INCLINATION    = 97.5773
RA_OF_ASC_NODE = 238.9509
ARG_OF_PERICENTER = 291.9134
MEAN_ANOMALY   = 68.1459

EPHEMERIS_TYPE = 0
CLASSIFICATION_TYPE = U
NORAD_CAT_ID   = 10114
ELEMENT_SET_NO = 999
REV_AT_EPOCH   = 66808
BSTAR          = .39439E-3
MEAN_MOTION_DOT = .18813E-3
MEAN_MOTION_DDOT = 0

CCSDS_OMM_VERS = 2.0
CREATION_DATE  = 
ORIGINATOR     = 

OBJECT_NAME    = SEASAT 1
OBJECT_ID      = 1978-064A
CENTER_NAME    = EARTH
REF_FRAME      = TEME
TIME_SYSTEM    = UTC
MEAN_ELEMENT_THEORY = SGP/SGP4

EPOCH          = 2026-03-08T02:42:14.840064
MEAN_MOTION    = 14.46158898
ECCENTRICITY   = .0002241
INCLINATION    = 108.0112
RA_OF_ASC_NODE = 122.1906
ARG_OF_PERICENTER = 286.6170
MEAN_ANOMALY   = 73.4729

EPHEMERIS_TYPE = 0
CLASSIFICATION_TYPE = U
NORAD_CAT_ID   = 10967
ELEMENT_SET_NO = 999
REV_AT_EPOCH   = 50628
BSTAR          = .13508E-3
MEAN_MOTION_DOT = .346E-5
MEAN_MOTION_DDOT = 0

CCSDS_OMM_VERS = 2.0
CREATION_DATE  = 
ORIGINATOR     = 

OBJECT_NAME    = SL-14 R/B
OBJECT_ID      = 1979-011B
CENTER_NAME    = EARTH
REF_FRAME      = TEME
TIME_SYSTEM    = UTC
MEAN_ELEMENT_THEORY = SGP/SGP4

EPOCH          = 2026-03-08T02:31:07.456224
MEAN_MOTION    = 14.91906424
ECCENTRICITY   = .0017472
INCLINATION    = 82.5210
RA_OF_ASC_NODE = 98.0751
ARG_OF_PERICENTER = 65.3970
MEAN_ANOMALY   = 294.9068

EPHEMERIS_TYPE = 0
CLASSIFICATION_TYPE = U
NORAD_CAT_ID   = 11267
ELEMENT_SET_NO = 999
REV_AT_EPOCH   = 52854
BSTAR          = .7371E-4
MEAN_MOTION_DOT = .773E-5
MEAN_MOTION_DDOT = 0

CCSDS_OMM_VERS = 2.0
CREATION_DATE  = 
ORIGINATOR     = 

OBJECT_NAME    = SL-8 R/B
OBJECT_ID      = 1979-089B
CENTER_NAME    = EARTH
REF_FRAME      = TEME
TIME_SYSTEM    = UTC
MEAN_ELEMENT_THEORY = SGP/SGP4

EPOCH          = 2026-03-08T03:36:20.778336
MEAN_MOTION    = 14.42349850
ECCENTRICITY   = .0017161
INCLINATION    = 74.0669
RA_OF_ASC_NODE = 93.8939
ARG_OF_PERICENTER = 266.7429
MEAN_ANOMALY   = 93.1764

EPHEMERIS_TYPE = 0
CLASSIFICATION_TYPE = U
NORAD_CAT_ID   = 11574
ELEMENT_SET_NO = 999
REV_AT_EPOCH   = 43588
BSTAR          = .1288E-3
MEAN_MOTION_DOT = .4E-5
MEAN_MOTION_DDOT = 0

CCSDS_OMM_VERS = 2.0
CREATION_DATE  = 
ORIGINATOR     = 

OBJECT_NAME    = SL-14 R/B
OBJECT_ID      = 1980-005B
CENTER_NAME    = EARTH
REF_FRAME      = TEME
TIME_SYSTEM    = UTC
MEAN_ELEMENT_THEORY = SGP/SGP4

EPOCH          = 2026-03-08T02:48:22.558464
MEAN_MOTION    = 14.90928613
ECCENTRICITY   = .0016052
INCLINATION    = 82.5147
RA_OF_ASC_NODE = 308.7282
ARG_OF_PERICENTER = 163.3381
MEAN_ANOMALY   = 196.8369

EPHEMERIS_TYPE = 0
CLASSIFICATION_TYPE = U
NORAD_CAT_ID   = 11672
ELEMENT_SET_NO = 999
REV_AT_EPOCH   = 47625
BSTAR          = .79075E-4
MEAN_MOTION_DOT = .807E-5
MEAN_MOTION_DDOT = 0

CCSDS_OMM_VERS = 2.0
CREATION_DATE  = 
ORIGINATOR     = 

OBJECT_NAME    = SL-8 R/B
OBJECT_ID      = 1981-003B
CENTER_NAME    = EARTH
REF_FRAME      = TEME
TIME_SYSTEM    = UTC
MEAN_ELEMENT_THEORY = SGP/SGP4

EPOCH          = 2026-03-08T01:55:23.580192
MEAN_MOTION    = 15.10898292
ECCENTRICITY   = .0262326
INCLINATION    = 82.9386
RA_OF_ASC_NODE = 291.5121
ARG_OF_PERICENTER = 184.2241
MEAN_ANOMALY   = 175.6783

EPHEMERIS_TYPE = 0
CLASSIFICATION_TYPE = U
NORAD_CAT_ID   = 12139
ELEMENT_SET_NO = 999
REV_AT_EPOCH   = 31443
BSTAR          = .69782E-3
MEAN_MOTION_DOT = .27158E-3
MEAN_MOTION_DDOT = 0

CCSDS_OMM_VERS = 2.0
CREATION_DATE  = 
ORIGINATOR     = 

OBJECT_NAME    = SL-3 R/B
OBJECT_ID      = 1981-046B
CENTER_NAME    = EARTH
REF_FRAME      = TEME
TIME_SYSTEM    = UTC
MEAN_ELEMENT_THEORY = SGP/SGP4

EPOCH          = 2026-03-08T02:20:03.202656
MEAN_MOTION    = 15.41946157
ECCENTRICITY   = .0019663
INCLINATION    = 81.2296
RA_OF_ASC_NODE = 291.6568
ARG_OF_PERICENTER = 27.8344
MEAN_ANOMALY   = 332.3946

EPHEMERIS_TYPE = 0
CLASSIFICATION_TYPE = U
NORAD_CAT_ID   = 12465
ELEMENT_SET_NO = 999
REV_AT_EPOCH   = 43818
BSTAR          = .42056E-3
MEAN_MOTION_DOT = .18063E-3
MEAN_MOTION_DDOT = 0

CCSDS_OMM_VERS = 2.0
CREATION_DATE  = 
ORIGINATOR     = 

OBJECT_NAME    = SL-3 R/B
OBJECT_ID      = 1981-103B
CENTER_NAME    = EARTH
REF_FRAME      = TEME
TIME_SYSTEM    = UTC
MEAN_ELEMENT_THEORY = SGP/SGP4

EPOCH          = 2026-03-08T03:04:21.316800
MEAN_MOTION    = 15.21355733
ECCENTRICITY   = .0012532
INCLINATION    = 81.1589
RA_OF_ASC_NODE = 215.2636
ARG_OF_PERICENTER = 292.4071
MEAN_ANOMALY   = 67.5832

EPHEMERIS_TYPE = 0
CLASSIFICATION_TYPE = U
NORAD_CAT_ID   = 12904
ELEMENT_SET_NO = 999
REV_AT_EPOCH   = 97299
BSTAR          = .37104E-3
MEAN_MOTION_DOT = .8355E-4
MEAN_MOTION_DDOT = 0

CCSDS_OMM_VERS = 2.0
CREATION_DATE  = 
ORIGINATOR     = 

OBJECT_NAME    = SL-3 R/B
OBJECT_ID      = 1982-013B
CENTER_NAME    = EARTH
REF_FRAME      = TEME
TIME_SYSTEM    = UTC
MEAN_ELEMENT_THEORY = SGP/SGP4

EPOCH          = 2026-03-08T03:16:55.141248
MEAN_MOTION    = 15.21999398
ECCENTRICITY   = .002258
INCLINATION    = 81.1763
RA_OF_ASC_NODE = 162.5903
ARG_OF_PERICENTER = 182.5394
MEAN_ANOMALY   = 177.5727

EPHEMERIS_TYPE = 0
CLASSIFICATION_TYPE = U
NORAD_CAT_ID   = 13068
ELEMENT_SET_NO = 999
REV_AT_EPOCH   = 40411
BSTAR          = .33436E-3
MEAN_MOTION_DOT = .7712E-4
MEAN_MOTION_DDOT = 0

CCSDS_OMM_VERS = 2.0
CREATION_DATE  = 
ORIGINATOR     = 

OBJECT_NAME    = SL-3 R/B
OBJECT_ID      = 1982-039B
CENTER_NAME    = EARTH
REF_FRAME      = TEME
TIME_SYSTEM    = UTC
MEAN_ELEMENT_THEORY = SGP/SGP4

EPOCH          = 2026-03-08T03:11:12.916896
MEAN_MOTION    = 15.10071218
ECCENTRICITY   = .0029783
INCLINATION    = 81.1585
RA_OF_ASC_NODE = 217.7566
ARG_OF_PERICENTER = 329.5832
MEAN_ANOMALY   = 30.3664

EPHEMERIS_TYPE = 0
CLASSIFICATION_TYPE = U
NORAD_CAT_ID   = 13154
ELEMENT_SET_NO = 999
REV_AT_EPOCH   = 38140
BSTAR          = .25276E-3
MEAN_MOTION_DOT = .4179E-4
MEAN_MOTION_DDOT = 0

